*******************************************************************************
Ephemeris / WWW_USER Wed Jun 10 10:31:17 2020 Pasadena, USA      / Horizons
*******************************************************************************
Target body name: Mars (499)                      {source: mar097}
Center body name: Sun (10)                        {source: mar097}
Center-site name: BODY CENTER
*******************************************************************************
Start time      : A.D. 2000-Jul-09 00:00:00.0000 TDB
Stop  time      : A.D. 2024-Jul-09 00:00:00.0000 TDB
Step-size       : 1440 minutes
*******************************************************************************
Center geodetic : 0.00000000,0.00000000,0.0000000 {E-lon(deg),Lat(deg),Alt(km)}
Center cylindric: 0.00000000,0.00000000,0.0000000 {E-lon(deg),Dxy(km),Dz(km)}
Center radii    : 696000.0 x 696000.0 x 696000.0 k{Equator, meridian, pole}    
Keplerian GM    : 2.9591230378107436E-04 au^3/d^2
Output units    : AU-D, deg, Julian Day Number (Tp)
Output type     : GEOMETRIC osculating elements
Output format   : 10
Reference frame : Ecliptic of J2000.0
*******************************************************************************
            JDTDB,            Calendar Date (TDB),                     EC,                     QR,                     IN,                     OM,                      W,                     Tp,                      N,                     MA,                     TA,                      A,                     AD,                     PR,
**************************************************************************************************************************************************************************************************************************************************************************************************************************************************
$$SOE
2459255.500000000, A.D. 2021-Feb-10 00:00:00.0000,  9.333073643821733E-02,  1.381479812738087E+00,  1.847904994337356E+00,  4.949373171813968E+01,  2.866545759540016E+02,  2.459064946652691E+06,  5.240354525005132E-01,  9.985670958248616E+01,  1.101320841749083E+02,  1.523686605754172E+00,  1.665893398770257E+00,  6.869764216947658E+02,
2459256.500000000, A.D. 2021-Feb-11 00:00:00.0000,  9.333071179269230E-02,  1.381480587665101E+00,  1.847904608423079E+00,  4.949372268477482E+01,  2.866549205058144E+02,  2.459064947169533E+06,  5.240350329391698E-01,  1.003803938233670E+02,  1.106287521792818E+02,  1.523687419033023E+00,  1.665894250400945E+00,  6.869769717128605E+02,
2459257.500000000, A.D. 2021-Feb-12 00:00:00.0000,  9.333068689443837E-02,  1.381481362886134E+00,  1.847904234636233E+00,  4.949371378574023E+01,  2.866552655470982E+02,  2.459064947687866E+06,  5.240346134302210E-01,  1.009040764541603E+02,  1.111246421752179E+02,  1.523688232211397E+00,  1.665895101536659E+00,  6.869775216631499E+02,
2459258.500000000, A.D. 2021-Feb-13 00:00:00.0000,  9.333066257004731E-02,  1.381482135553970E+00,  1.847903855900302E+00,  4.949370461228924E+01,  2.866556108774672E+02,  2.459064948206973E+06,  5.240341948770828E-01,  1.014277580260493E+02,  1.116197591480284E+02,  1.523689043538103E+00,  1.665895951522236E+00,  6.869780703613080E+02,
2459259.500000000, A.D. 2021-Feb-14 00:00:00.0000,  9.333063941668375E-02,  1.381482904492623E+00,  1.847903467755092E+00,  4.949369503984264E+01,  2.866559566074419E+02,  2.459064948727008E+06,  5.240337774311541E-01,  1.019514384901138E+02,  1.121141075182063E+02,  1.523689852719662E+00,  1.665896800946701E+00,  6.869786176088537E+02,
2459260.500000000, A.D. 2021-Feb-15 00:00:00.0000,  9.333061716658911E-02,  1.381483671703888E+00,  1.847903082149041E+00,  4.949368535108734E+01,  2.866563032004309E+02,  2.459064949249087E+06,  5.240333601855656E-01,  1.024751170876945E+02,  1.126076909756498E+02,  1.523690661513953E+00,  1.665897651324018E+00,  6.869791645946362E+02,
2459261.500000000, A.D. 2021-Feb-16 00:00:00.0000,  9.333059496731079E-02,  1.381484440913945E+00,  1.847902718364969E+00,  4.949367603882195E+01,  2.866566512186413E+02,  2.459064949774654E+06,  5.240329417592036E-01,  1.029987927916687E+02,  1.131005129300365E+02,  1.523691472598149E+00,  1.665898504282352E+00,  6.869797131292221E+02,
2459262.500000000, A.D. 2021-Feb-17 00:00:00.0000,  9.333057187017180E-02,  1.381485215081869E+00,  1.847902388761107E+00,  4.949366744910783E+01,  2.866570009254120E+02,  2.459064950304425E+06,  5.240325212908638E-01,  1.035224650524173E+02,  1.135925772644191E+02,  1.523692287641633E+00,  1.665899360201397E+00,  6.869802643416139E+02,
2459263.500000000, A.D. 2021-Feb-18 00:00:00.0000,  9.333054709390623E-02,  1.381485994843784E+00,  1.847902089033390E+00,  4.949365950607229E+01,  2.866573520519196E+02,  2.459064950837661E+06,  5.240320990959361E-01,  1.040461343144107E+02,  1.140838888428775E+02,  1.523693106033064E+00,  1.665900217222343E+00,  6.869808178183637E+02,
2459264.500000000, A.D. 2021-Feb-19 00:00:00.0000,  9.333052028865634E-02,  1.381486778574504E+00,  1.847901801229258E+00,  4.949365175566417E+01,  2.866577040031750E+02,  2.459064951372623E+06,  5.240316764024532E-01,  1.045698017282638E+02,  1.145744532600914E+02,  1.523693925392005E+00,  1.665901072209506E+00,  6.869813719495884E+02,
2459265.500000000, A.D. 2021-Feb-20 00:00:00.0000,  9.333049176244172E-02,  1.381487563879157E+00,  1.847901508930396E+00,  4.949364375350513E+01,  2.866580563729303E+02,  2.459064951908063E+06,  5.240312543060260E-01,  1.050934681664441E+02,  1.150642759380608E+02,  1.523694743594698E+00,  1.665901923310239E+00,  6.869819252989930E+02,
2459266.500000000, A.D. 2021-Feb-21 00:00:00.0000,  9.333046223460782E-02,  1.381488349317432E+00,  1.847901209562823E+00,  4.949363541420903E+01,  2.866584092104156E+02,  2.459064952444135E+06,  5.240308330025275E-01,  1.056171335896964E+02,  1.155533615095245E+02,  1.523695560261454E+00,  1.665902771205475E+00,  6.869824776097930E+02,
2459267.500000000, A.D. 2021-Feb-22 00:00:00.0000,  9.333043225312673E-02,  1.381489134844060E+00,  1.847900911415552E+00,  4.949362695834694E+01,  2.866587627828049E+02,  2.459064952981778E+06,  5.240304120426429E-01,  1.061407974165904E+02,  1.160417141078543E+02,  1.523696376263231E+00,  1.665903617682401E+00,  6.869830294710167E+02,
2459268.500000000, A.D. 2021-Feb-23 00:00:00.0000,  9.333040168703079E-02,  1.381489921674922E+00,  1.847900625120094E+00,  4.949361869022806E+01,  2.866591172770651E+02,  2.459064953521752E+06,  5.240299908480995E-01,  1.066644591335151E+02,  1.165293378866979E+02,  1.523697192720971E+00,  1.665904463767021E+00,  6.869835816407559E+02,
2459269.500000000, A.D. 2021-Feb-24 00:00:00.0000,  9.333036958348868E-02,  1.381490712321950E+00,  1.847900360267539E+00,  4.949361090381669E+01,  2.866594727611561E+02,  2.459064954064368E+06,  5.240295688157167E-01,  1.071881184520419E+02,  1.170162371521834E+02,  1.523698010803905E+00,  1.665905309285860E+00,  6.869841349097604E+02,
2459270.500000000, A.D. 2021-Feb-25 00:00:00.0000,  9.333033467387893E-02,  1.381491509473841E+00,  1.847900122152944E+00,  4.949360378332608E+01,  2.866598291905547E+02,  2.459064954609490E+06,  5.240291455155213E-01,  1.077117753538136E+02,  1.175024164550878E+02,  1.523698831345516E+00,  1.665906153217192E+00,  6.869846898417163E+02,
2459271.500000000, A.D. 2021-Feb-26 00:00:00.0000,  9.333029637303838E-02,  1.381492313365603E+00,  1.847899904684361E+00,  4.949359717643049E+01,  2.866601862907397E+02,  2.459064955156269E+06,  5.240287213211174E-01,  1.082354303554639E+02,  1.179878809343686E+02,  1.523699653621604E+00,  1.665906993877604E+00,  6.869852459468477E+02,
2459272.500000000, A.D. 2021-Feb-27 00:00:00.0000,  9.333025533309003E-02,  1.381493120661535E+00,  1.847899690394622E+00,  4.949359056543074E+01,  2.866605435773173E+02,  2.459064955703309E+06,  5.240282975651018E-01,  1.087590844641541E+02,  1.184726363252523E+02,  1.523700475049009E+00,  1.665907829436484E+00,  6.869858014781654E+02,
2459273.500000000, A.D. 2021-Feb-28 00:00:00.0000,  9.333021274821952E-02,  1.381493927289446E+00,  1.847899464471829E+00,  4.949358348063919E+01,  2.866609006770444E+02,  2.459064956249625E+06,  5.240278755291630E-01,  1.092827384639563E+02,  1.189566882244720E+02,  1.523701293143242E+00,  1.665908658997038E+00,  6.869863547554073E+02,
2459274.500000000, A.D. 2021-Mar-01 00:00:00.0000,  9.333016920597675E-02,  1.381494732117112E+00,  1.847899227867741E+00,  4.949357592815820E+01,  2.866612576019642E+02,  2.459064956795428E+06,  5.240274553481293E-01,  1.098063922774264E+02,  1.194400413879989E+02,  1.523702107642930E+00,  1.665909483168748E+00,  6.869869056018060E+02,
2459275.500000000, A.D. 2021-Mar-02 00:00:00.0000,  9.333012441648759E-02,  1.381495537282290E+00,  1.847898995405610E+00,  4.949356837001601E+01,  2.866616146676914E+02,  2.459064957341883E+06,  5.240270360569655E-01,  1.103300450967872E+02,  1.199226998320167E+02,  1.523702920418736E+00,  1.665910303555183E+00,  6.869874552824892E+02,
2459276.500000000, A.D. 2021-Mar-03 00:00:00.0000,  9.333007769783969E-02,  1.381496345800351E+00,  1.847898783334328E+00,  4.949356134831832E+01,  2.866619721629463E+02,  2.459064957890123E+06,  5.240266165311779E-01,  1.108536960926755E+02,  1.204046675384688E+02,  1.523703733650434E+00,  1.665911121500518E+00,  6.869880052716389E+02,
2459277.500000000, A.D. 2021-Mar-04 00:00:00.0000,  9.333002833867760E-02,  1.381497159465743E+00,  1.847898597538645E+00,  4.949355509071409E+01,  2.866623300599261E+02,  2.459064958440262E+06,  5.240261963664821E-01,  1.113773451194325E+02,  1.208859491384834E+02,  1.523704548121714E+00,  1.665911936777686E+00,  6.869885560992660E+02,
